NORAD_CAT_ID,OBJECT_NAME,OBJECT_TYPE,EPOCH,MEAN_MOTION,ECCENTRICITY,INCLINATION,RA_OF_ASC_NODE,ARG_OF_PERICENTER,MEAN_ANOMALY,BSTAR,MEAN_MOTION_DOT,MEAN_MOTION_DDOT,TLE_LINE0,TLE_LINE1,TLE_LINE2,SEMIMAJOR_AXIS,PERIOD,APOGEE,PERIGEE,DECAYED
50823.0,STARLINK-3334,PAYLOAD,2023-12-26 19:41:37,15.08843299,0.0001244,53.216,177.8289,88.2128,271.9007,6.4253e-05,7.35e-06,0.0,0 STARLINK-3334,1 50823U 22001W   23360.82057520  .00000735  00000-0  64253-4 0  9995,2 50823  53.2160 177.8289 0001244  88.2128 271.9007 15.08843299110332,6917.87,95.437,540.596,538.875,0.0
50823.0,STARLINK-3334,PAYLOAD,2023-12-26 21:17:00,15.08844134,0.0001245,53.216,177.5315,89.525,270.5885,6.7947e-05,7.94e-06,0.0,0 STARLINK-3334,1 50823U 22001W   23360.88681415  .00000794  00000-0  67947-4 0  9995,2 50823  53.2160 177.5315 0001245  89.5250 270.5885 15.08844134109066,6917.868,95.437,540.594,538.871,0.0
50823.0,STARLINK-3334,PAYLOAD,2023-12-27 21:07:47,15.08841898,0.0001306,53.2162,173.0695,88.0731,272.041,6.0751e-05,6.79e-06,0.0,0 STARLINK-3334,1 50823U 22001W   23361.88041593  .00000679  00000-0  60751-4 0  9991,2 50823  53.2162 173.0695 0001306  88.0731 272.0410 15.08841898109218,6917.875,95.437,540.643,538.836,0.0
50823.0,STARLINK-3334,PAYLOAD,2023-12-28 14:37:02,15.0884216,0.0001308,53.2164,169.7975,91.4138,268.7004,4.3566e-05,4.06e-06,0.0,0 STARLINK-3334,1 50823U 22001W   23362.60905592  .00000406  00000-0  43566-4 0  9993,2 50823  53.2164 169.7975 0001308  91.4138 268.7004 15.08842160109320,6917.874,95.437,540.644,538.834,0.0
50823.0,STARLINK-3334,PAYLOAD,2023-12-28 20:58:34,15.08842965,0.0001334,53.2166,168.6079,87.8869,272.2276,4.3294e-05,4.01e-06,0.0,0 STARLINK-3334,1 50823U 22001W   23362.87401454  .00000401  00000-0  43294-4 0  9993,2 50823  53.2166 168.6079 0001334  87.8869 272.2276 15.08842965109362,6917.871,95.437,540.659,538.813,0.0
50823.0,STARLINK-3334,PAYLOAD,2023-12-29 11:17:03,15.08838733,0.0001361,53.2165,165.9315,88.5514,271.5634,2.6444e-05,1.33e-06,0.0,0 STARLINK-3334,1 50823U 22001W   23363.47017832  .00000133  00000-0  26444-4 0  9993,2 50823  53.2165 165.9315 0001361  88.5514 271.5634 15.08838733110730,6917.884,95.438,540.691,538.808,0.0
50823.0,STARLINK-3334,PAYLOAD,2023-12-29 14:27:49,15.08840284,0.0001346,53.2161,165.3374,92.5612,267.5534,3.7915e-05,3.16e-06,0.0,0 STARLINK-3334,1 50823U 22001W   23363.60265639  .00000316  00000-0  37915-4 0  9996,2 50823  53.2161 165.3374 0001346  92.5612 267.5534 15.08840284109479,6917.88,95.438,540.676,538.813,0.0
50823.0,STARLINK-3334,PAYLOAD,2023-12-29 17:38:35,15.0884105,0.0001343,53.2163,164.7425,91.9409,268.1737,4.13e-05,3.69e-06,0.0,0 STARLINK-3334,1 50823U 22001W   23363.73513567  .00000369  00000-0  41300-4 0  9997,2 50823  53.2163 164.7425 0001343  91.9409 268.1737 15.08841050109491,6917.877,95.437,540.671,538.813,0.0
50823.0,STARLINK-3334,PAYLOAD,2023-12-30 14:18:36,15.08839791,0.0001439,53.2167,160.8772,103.2727,256.8425,2.8103e-05,1.59e-06,0.0,0 STARLINK-3334,1 50823U 22001W   23364.59625641  .00000159  00000-0  28103-4 0  9992,2 50823  53.2167 160.8772 0001439 103.2727 256.8425 15.08839791109625,6917.881,95.438,540.742,538.751,0.0
50823.0,STARLINK-3334,PAYLOAD,2023-12-30 15:53:59,15.08839921,0.0001416,53.2171,160.5799,101.3329,258.7822,2.7343e-05,1.47e-06,0.0,0 STARLINK-3334,1 50823U 22001W   23364.66249639  .00000147  00000-0  27343-4 0  9991,2 50823  53.2171 160.5799 0001416 101.3329 258.7822 15.08839921110919,6917.881,95.438,540.725,538.766,0.0
50823.0,STARLINK-3334,PAYLOAD,2023-12-30 20:40:09,15.0884056,0.0001421,53.2171,159.6876,101.3031,258.8121,3.112e-05,2.07e-06,0.0,0 STARLINK-3334,1 50823U 22001W   23364.86121534  .00000207  00000-0  31120-4 0  9991,2 50823  53.2171 159.6876 0001421 101.3031 258.8121 15.08840560109664,6917.879,95.438,540.727,538.761,0.0
50823.0,STARLINK-3334,PAYLOAD,2023-12-31 15:44:47,15.08836658,0.0001334,53.2167,156.1178,99.7632,260.351,-4.8095e-06,-3.64e-06,0.0,0 STARLINK-3334,1 50823U 22001W   23365.65610060 -.00000364  00000-0 -48095-5 0  9992,2 50823  53.2167 156.1178 0001334  99.7632 260.3510 15.08836658109782,6917.891,95.438,540.678,538.833,0.0
50823.0,STARLINK-3334,PAYLOAD,2024-01-01 14:00:11,15.08834532,0.0001367,53.2172,151.9538,101.4443,258.6703,2.165e-05,5.7e-07,0.0,0 STARLINK-3334,1 50823U 22001W   24001.58346322  .00000057  00000-0  21650-4 0  9993,2 50823  53.2172 151.9538 0001367 101.4443 258.6703 15.08834532109927,6917.897,95.438,540.708,538.816,0.0
50823.0,STARLINK-3334,PAYLOAD,2024-01-01 17:10:57,15.08836241,0.0001285,53.2172,151.3594,88.4401,271.6739,2.7417e-05,1.48e-06,0.0,0 STARLINK-3334,1 50823U 22001W   24001.71594293  .00000148  00000-0  27417-4 0  9998,2 50823  53.2172 151.3594 0001285  88.4401 271.6739 15.08836241111229,6917.892,95.438,540.646,538.868,0.0
50823.0,STARLINK-3334,PAYLOAD,2024-01-01 20:21:43,15.08835991,0.0001315,53.2174,150.7656,90.0486,270.0657,1.9644e-05,2.5e-07,0.0,0 STARLINK-3334,1 50823U 22001W   24001.84842376  .00000025  00000-0  19644-4 0  9997,2 50823  53.2174 150.7656 0001315  90.0486 270.0657 15.08835991109960,6917.893,95.438,540.667,538.848,0.0
50823.0,STARLINK-3334,PAYLOAD,2024-01-02 13:50:58,15.08835715,0.0001214,53.217,147.4955,89.5026,270.6105,5.1839e-05,5.37e-06,0.0,0 STARLINK-3334,1 50823U 22001W   24002.57706491  .00000537  00000-0  51839-4 0  9995,2 50823  53.2170 147.4955 0001214  89.5026 270.6105 15.08835715110074,6917.893,95.438,540.598,538.919,0.0
50823.0,STARLINK-3334,PAYLOAD,2024-01-02 18:37:07,15.08839947,0.0001269,53.2172,146.6029,86.8878,273.2259,8.797e-05,1.112e-05,0.0,0 STARLINK-3334,1 50823U 22001W   24002.77578173  .00001112  00000-0  87970-4 0  9996,2 50823  53.2172 146.6029 0001269  86.8878 273.2259 15.08839947111389,6917.881,95.438,540.623,538.868,0.0
50823.0,STARLINK-3334,PAYLOAD,2024-01-03 08:55:36,15.08834851,0.000129,53.2172,143.9278,80.8613,279.2525,1.0712e-05,-1.17e-06,0.0,0 STARLINK-3334,1 50823U 22001W   24003.37194944 -.00000117  00000-0  10712-4 0  9998,2 50823  53.2172 143.9278 0001290  80.8613 279.2525 15.08834851111471,6917.896,95.438,540.654,538.869,0.0
50823.0,STARLINK-3334,PAYLOAD,2024-01-03 13:41:45,15.08837258,0.0001271,53.217,143.0363,80.9927,279.1209,2.4737e-05,1.06e-06,0.0,0 STARLINK-3334,1 50823U 22001W   24003.57066765  .00000106  00000-0  24737-4 0  9998,2 50823  53.2170 143.0363 0001271  80.9927 279.1209 15.08837258110227,6917.889,95.438,540.633,538.875,0.0
50823.0,STARLINK-3334,PAYLOAD,2024-01-03 16:52:31,15.08839749,0.0001322,53.217,142.4414,79.6483,280.4659,4.9236e-05,4.96e-06,0.0,0 STARLINK-3334,1 50823U 22001W   24003.70314560  .00000496  00000-0  49236-4 0  9995,2 50823  53.2170 142.4414 0001322  79.6483 280.4659 15.08839749110249,6917.881,95.438,540.661,538.832,0.0
50823.0,STARLINK-3334,PAYLOAD,2024-01-04 13:32:32,15.08841829,0.0001367,53.2165,138.577,78.2589,281.8557,2.7364e-05,1.48e-06,0.0,0 STARLINK-3334,1 50823U 22001W   24004.56426588  .00000148  00000-0  27364-4 0  9996,2 50823  53.2165 138.5770 0001367  78.2589 281.8557 15.08841829110373,6917.875,95.437,540.685,538.794,0.0
50823.0,STARLINK-3334,PAYLOAD,2024-01-04 15:07:55,15.08842702,0.0001386,53.2166,138.2797,76.7922,283.3225,3.483e-05,2.66e-06,0.0,0 STARLINK-3334,1 50823U 22001W   24004.63050510  .00000266  00000-0  34830-4 0  9999,2 50823  53.2166 138.2797 0001386  76.7922 283.3225 15.08842702110386,6917.872,95.437,540.696,538.778,0.0
50823.0,STARLINK-3334,PAYLOAD,2024-01-05 13:23:19,15.0883725,0.0001376,53.217,134.1166,77.8828,282.2319,1.7509e-05,-9e-08,0.0,0 STARLINK-3334,1 50823U 22001W   24005.55786957 -.00000009  00000-0  17509-4 0  9992,2 50823  53.2170 134.1166 0001376  77.8828 282.2319 15.08837250111804,6917.889,95.438,540.706,538.802,0.0
50823.0,STARLINK-3334,PAYLOAD,2024-01-05 18:09:28,15.08841727,0.0001345,53.2168,133.2239,83.0406,277.0739,5.0163e-05,5.11e-06,0.0,0 STARLINK-3334,1 50823U 22001W   24005.75658538  .00000511  00000-0  50163-4 0  9997,2 50823  53.2168 133.2239 0001345  83.0406 277.0739 15.08841727110552,6917.875,95.437,540.671,538.81,0.0
50823.0,STARLINK-3334,PAYLOAD,2024-01-06 11:38:43,15.08838943,0.0001435,53.2171,129.9515,95.1083,265.0073,-1.2977e-05,-4.94e-06,0.0,0 STARLINK-3334,1 50823U 22001W   24006.48522932 -.00000494  00000-0 -12977-4 0  9999,2 50823  53.2171 129.9515 0001435  95.1083 265.0073 15.08838943110666,6917.884,95.438,540.741,538.756,0.0
50823.0,STARLINK-3334,PAYLOAD,2024-01-06 18:00:16,15.08839847,0.0001436,53.2175,128.7599,103.6228,256.4924,-1.8507e-06,-3.17e-06,0.0,0 STARLINK-3334,1 50823U 22001W   24006.75018816 -.00000317  00000-0 -18507-5 0  9990,2 50823  53.2175 128.7599 0001436 103.6228 256.4924 15.08839847111985,6917.881,95.438,540.739,538.752,0.0
50823.0,STARLINK-3334,PAYLOAD,2024-01-07 14:40:16,15.08840545,0.0001383,53.2175,124.8939,93.4641,266.6509,5.6159e-05,6.06e-06,0.0,0 STARLINK-3334,1 50823U 22001W   24007.61130753  .00000606  00000-0  56159-4 0  9994,2 50823  53.2175 124.8939 0001383  93.4641 266.6509 15.08840545110838,6917.879,95.438,540.7,538.787,0.0
50823.0,STARLINK-3334,PAYLOAD,2024-01-08 11:20:18,15.08835412,0.000147,53.2178,121.0292,98.1805,261.9354,2.5859e-05,1.24e-06,0.0,0 STARLINK-3334,1 50823U 22001W   24008.47243301  .00000124  00000-0  25859-4 0  9991,2 50823  53.2178 121.0292 0001470  98.1805 261.9354 15.08835412112243,6917.894,95.438,540.776,538.742,0.0
50823.0,STARLINK-3334,PAYLOAD,2024-01-08 14:31:04,15.08838551,0.0001456,53.2176,120.4348,97.5969,262.5189,4.9207e-05,4.95e-06,0.0,0 STARLINK-3334,1 50823U 22001W   24008.60491062  .00000495  00000-0  49207-4 0  9999,2 50823  53.2176 120.4348 0001456  97.5969 262.5189 15.08838551110983,6917.885,95.438,540.757,538.743,0.0
50823.0,STARLINK-3334,PAYLOAD,2024-01-09 12:46:28,15.08842446,0.0001425,53.2171,116.2741,95.2216,264.8938,3.179e-05,2.18e-06,0.0,0 STARLINK-3334,1 50823U 22001W   24009.53227073  .00000218  00000-0  31790-4 0  9992,2 50823  53.2171 116.2741 0001425  95.2216 264.8938 15.08842446112408,6917.873,95.437,540.724,538.752,0.0
